[{"OBJECT_NAME":"ZHEDA PIXING 1C","OBJECT_ID":"2010-047C","EPOCH":"2026-03-09T22:53:33.637920","MEAN_MOTION":14.90569594,"ECCENTRICITY":0.00175753,"INCLINATION":97.9704,"RA_OF_ASC_NODE":49.5666,"ARG_OF_PERICENTER":253.4193,"MEAN_ANOMALY":106.5095,"EPHEMERIS_TYPE":0,"CLASSIFICATION_TYPE":"U","NORAD_CAT_ID":37167,"ELEMENT_SET_NO":999,"REV_AT_EPOCH":83564,"BSTAR":0.00040148171,"MEAN_MOTION_DOT":3.88e-5,"MEAN_MOTION_DDOT":0},{"OBJECT_NAME":"COSMOS 2251 DEB","OBJECT_ID":"1993-036AUM","EPOCH":"2026-03-08T12:34:22.155456","MEAN_MOTION":14.96324912,"ECCENTRICITY":0.00809203,"INCLINATION":73.9894,"RA_OF_ASC_NODE":123.8265,"ARG_OF_PERICENTER":247.0296,"MEAN_ANOMALY":179.8153,"EPHEMERIS_TYPE":0,"CLASSIFICATION_TYPE":"U","NORAD_CAT_ID":35898,"ELEMENT_SET_NO":999,"REV_AT_EPOCH":68092,"BSTAR":0.00097608609,"MEAN_MOTION_DOT":0.00011776,"MEAN_MOTION_DDOT":0}]
